{
"type": "FeatureCollection",
"name": "schools",
"crs": { "type": "name", "properties": { "name": "urn:ogc:def:crs:OGC:1.3:CRS84" } },
"features": [
{ "type": "Feature", "properties": { "name": "Albion Gardens, cl. 1982-83", "category": "elementary_closed", "text": "105 Thistledown Boulevard, Thistletown P.O.<br>Opened: 1957-58<br>Closed: 1982-83" }, "geometry": { "type": "Point", "coordinates": [ -79.553858262913195, 43.738099648279899 ] } },
{ "type": "Feature", "properties": { "name": "Albion Heights", "category": "elementary_open", "text": "45 Lynmount Rd M9V 3W9<br>Opened: 1972-73<br>Closed: --" }, "geometry": { "type": "Point", "coordinates": [ -79.594386617288606, 43.731345311190999 ] } },
{ "type": "Feature", "properties": { "name": "Beaumonde Heights", "category": "elementary_open", "text": "70 Monterrey Drive, Thistletown<br>Opened: 1959-60<br>Closed: --" }, "geometry": { "type": "Point", "coordinates": [ -79.574773199963104, 43.742628876197799 ] } },
{ "type": "Feature", "properties": { "name": "Bloordale", "category": "elementary_open", "text": "10 Toledo Road, Etobicoke<br>Opened: 1960-61<br>Closed: --" }, "geometry": { "type": "Point", "coordinates": [ -79.5722526007428, 43.639138098152799 ] } },
{ "type": "Feature", "properties": { "name": "Bloorlea", "category": "elementary_open", "text": "4050 Bloor Street W. Toronto 18.<br>Opened: 1957-58<br>Closed: --" }, "geometry": { "type": "Point", "coordinates": [ -79.5555031991059, 43.637743356173999 ] } },
{ "type": "Feature", "properties": { "name": "Braeburn", "category": "elementary_open", "text": "15 Tandridge M9W 2N8<br>Opened: 1968-69<br>Closed: --" }, "geometry": { "type": "Point", "coordinates": [ -79.548825922456501, 43.728109428556103 ] } },
{ "type": "Feature", "properties": { "name": "Briarcrest*, cl. 1983-84", "category": "elementary_closed", "text": "58 Wellesworth Drive, Islington<br>Opened: 1958-59<br>Closed: 1983-84" }, "geometry": { "type": "Point", "coordinates": [ -79.580052076903996, 43.666500791045898 ] } },
{ "type": "Feature", "properties": { "name": "Broadacres", "category": "elementary_open", "text": "45 Crendon Drive, Etobicoke<br>Opened: 1959-60<br>Closed: --" }, "geometry": { "type": "Point", "coordinates": [ -79.571954764647501, 43.648031635198898 ] } },
{ "type": "Feature", "properties": { "name": "Buttonwood Hill, cl. 1982-83", "category": "elementary_closed", "text": "100 Allanhurst Drive, Islington.<br>Opened: 1964-65<br>Closed: 1982-83" }, "geometry": { "type": "Point", "coordinates": [ -79.519417360563907, 43.680162648227402 ] } },
{ "type": "Feature", "properties": { "name": "Castlebar, cl. 1980-81", "category": "elementary_closed", "text": "70 Chartwell Road, Toronto 14.<br>Opened: 1956-57<br>Closed: 1980-81" }, "geometry": { "type": "Point", "coordinates": [ -79.513820483822002, 43.630622596847999 ] } },
{ "type": "Feature", "properties": { "name": "Clairville", "category": "elementary_open", "text": "350 Silverstone Dr, Etobicoke, ON, M9V 3J4<br>Opened: 1966-67<br>Closed: --" }, "geometry": { "type": "Point", "coordinates": [ -79.599162379717896, 43.7480355130525 ] } },
{ "type": "Feature", "properties": { "name": "Cloverdale, cl. 1976-77", "category": "elementary_closed", "text": "160 Silverhill Drive. Toronto 18.<br>Opened: 1954-55<br>Closed: 1976-77" }, "geometry": { "type": "Point", "coordinates": [ -79.551214624841904, 43.633667076943297 ] } },
{ "type": "Feature", "properties": { "name": "Crestwood, cl. 1975-76", "category": "elementary_closed", "text": "60 Berl Avenue, Toronto 14.<br>Opened: 1952-53<br>Closed: 1975-76" }, "geometry": { "type": "Point", "coordinates": [ -79.500115642931604, 43.6312372121875 ] } },
{ "type": "Feature", "properties": { "name": "David Hornell", "category": "elementary_open", "text": "32 Victoria Street<br>Opened: 1961-62<br>Closed: --" }, "geometry": { "type": "Point", "coordinates": [ -79.489055674370405, 43.619445659110703 ] } },
{ "type": "Feature", "properties": { "name": "Dixon Grove", "category": "elementary_open", "text": "315 The Westway, Weston.<br>Opened: 1960-61<br>Closed: --" }, "geometry": { "type": "Point", "coordinates": [ -79.556129773761597, 43.685001267068998 ] } },
{ "type": "Feature", "properties": { "name": "Douglas Park, cl. 1982-83", "category": "elementary_closed", "text": "301 Lanor Aveue, Toronto 14. <br>Opened: 1956-57<br>Closed: 1982-83" }, "geometry": { "type": "Point", "coordinates": [ -79.533686788559706, 43.611183188192697 ] } },
{ "type": "Feature", "properties": { "name": "Eatonville", "category": "elementary_open", "text": "15 Rossburn Dr. Toronto 18.<br>Opened: 1955-56<br>Closed: --" }, "geometry": { "type": "Point", "coordinates": [ -79.566560909850494, 43.637756936716798 ] } },
{ "type": "Feature", "properties": { "name": "Elmbank", "category": "elementary_open", "text": "10 Pittsboro Drive<br>Opened: 1967-68<br>Closed: --" }, "geometry": { "type": "Point", "coordinates": [ -79.589870111834898, 43.736539366044298 ] } },
{ "type": "Feature", "properties": { "name": "Elmlea", "category": "elementary_open", "text": "50 Hadrian Drive. Rexdale P.O.<br>Opened: 1952-53<br>Closed: --" }, "geometry": { "type": "Point", "coordinates": [ -79.549902317664603, 43.715942865825703 ] } },
{ "type": "Feature", "properties": { "name": "Etienne Brule", "category": "elementary_open", "text": "71 Ballacaine Drive, Toronto 18. <br>Opened: 1956-57<br>Closed: --" }, "geometry": { "type": "Point", "coordinates": [ -79.496600735243106, 43.637762948755899 ] } },
{ "type": "Feature", "properties": { "name": "Fairfield, cl. 1980-81", "category": "elementary_closed", "text": "80 Lothian Ave Etobicoke<br>Opened: 1955-56<br>Closed: 1980-81" }, "geometry": { "type": "Point", "coordinates": [ -79.519328903537499, 43.639764703937601 ] } },
{ "type": "Feature", "properties": { "name": "Fairhaven, cl. 1983-84", "category": "elementary_closed", "text": "40 McArthur St. St. Phillip's P.O.<br>Opened: 1954-55<br>Closed: 1983-84" }, "geometry": { "type": "Point", "coordinates": [ -79.546511158302295, 43.701525680174498 ] } },
{ "type": "Feature", "properties": { "name": "Franklin Horner, cl. 1983-84", "category": "elementary_closed", "text": null }, "geometry": { "type": "Point", "coordinates": [ -79.538210163299894, 43.603602354932903 ] } },
{ "type": "Feature", "properties": { "name": "George R. Gauld", "category": "elementary_open", "text": null }, "geometry": { "type": "Point", "coordinates": [ -79.498442326197207, 43.620637413198899 ] } },
{ "type": "Feature", "properties": { "name": "Grand Avenue, cl. 1968-69", "category": "elementary_closed", "text": "494 Summerhill Ave. Toronto 14.<br>Opened: 1952-53<br>Closed: 1968-69" }, "geometry": { "type": "Point", "coordinates": [ -79.373568280405095, 43.686768903601902 ] } },
{ "type": "Feature", "properties": { "name": "Green Meadows, cl. 1977-78", "category": "elementary_closed", "text": null }, "geometry": { "type": "Point", "coordinates": [ -79.536871616403303, 43.685970003603202 ] } },
{ "type": "Feature", "properties": { "name": "Greenholme", "category": "elementary_open", "text": "10 Jamestown Crescent, Rexdale.<br>Opened: 1966-67<br>Closed: --" }, "geometry": { "type": "Point", "coordinates": [ -79.582995902153996, 43.7350447574672 ] } },
{ "type": "Feature", "properties": { "name": "Heatherbrae, cl. 1984-85", "category": "elementary_closed", "text": "2170 Kipling Avenue, M9W 4K9<br>Opened: 1959-60<br>Closed: 1984-85" }, "geometry": { "type": "Point", "coordinates": [ -79.5720621406128, 43.720914702096501 ] } },
{ "type": "Feature", "properties": { "name": "Highfield II", "category": "elementary_open", "text": "70 Monterrey Drive, Rexdale<br>Opened: 1963-64<br>Closed: --" }, "geometry": { "type": "Point", "coordinates": [ -79.574749023589305, 43.742650303477397 ] } },
{ "type": "Feature", "properties": { "name": "Hilltop", "category": "elementary_open", "text": "35 Trehorne Dr, Etobicoke, ON M9P 1N8<br>Opened: 1958-59<br>Closed: --" }, "geometry": { "type": "Point", "coordinates": [ -79.533101396695699, 43.689223400146098 ] } },
{ "type": "Feature", "properties": { "name": "Hollycrest", "category": "elementary_open", "text": "630 Renforth Drive, Etobicoke.<br>Opened: 1966-67<br>Closed: --" }, "geometry": { "type": "Point", "coordinates": [ -79.582565200889107, 43.656100354203602 ] } },
{ "type": "Feature", "properties": { "name": "Humber Heights [II], cl. 1981-82", "category": "elementary_closed", "text": "2245 Lawrence Ave. W. Toronto 15.<br>Opened: 1950-51<br>Closed: 1981-82" }, "geometry": { "type": "Point", "coordinates": [ -79.526838828014306, 43.697108100422 ] } },
{ "type": "Feature", "properties": { "name": "Humberwood Downs", "category": "elementary_open", "text": "850 Humberwood Blvd<br>Opened: 1995-96<br>Closed: --" }, "geometry": { "type": "Point", "coordinates": [ -79.619159865586994, 43.728901145983002 ] } },
{ "type": "Feature", "properties": { "name": "Humber Valley Village", "category": "elementary_open", "text": "65 Hartfeild Rd. Toronto 18. <br>Opened: 1952-53<br>Closed: --" }, "geometry": { "type": "Point", "coordinates": [ -79.526637432641095, 43.665449302513899 ] } },
{ "type": "Feature", "properties": { "name": "Islington", "category": "elementary_open", "text": null }, "geometry": { "type": "Point", "coordinates": [ -79.527634205785304, 43.647511787328597 ] } },
{ "type": "Feature", "properties": { "name": "James S. Bell, cl. nan", "category": "elementary_closed", "text": null }, "geometry": { "type": "Point", "coordinates": [ -79.530173366016001, 43.594040057700298 ] } },
{ "type": "Feature", "properties": { "name": "John D. Parker", "category": "elementary_open", "text": "202 Mount Olive Drive<br>Opened: 1974-75<br>Closed: --" }, "geometry": { "type": "Point", "coordinates": [ -79.596411457165303, 43.753395948445302 ] } },
{ "type": "Feature", "properties": { "name": "John G. Althouse", "category": "elementary_open", "text": "130 Lloyd Manor Road, Toronto 18.<br>Opened: 1957-58<br>Closed: --" }, "geometry": { "type": "Point", "coordinates": [ -79.554116041738695, 43.668261636451398 ] } },
{ "type": "Feature", "properties": { "name": "Kingsview Village", "category": "elementary_open", "text": "1 York Rd, Etobicoke, ON M9R 3C8<br>Opened: 1956-57<br>Closed: --" }, "geometry": { "type": "Point", "coordinates": [ -79.550973098791999, 43.697787005721302 ] } },
{ "type": "Feature", "properties": { "name": "Kipling Grove, cl. 1977-78", "category": "elementary_closed", "text": "19 Glen Agar Dr. Toronto 18. <br>Opened: 1955-56<br>Closed: 1977-78" }, "geometry": { "type": "Point", "coordinates": [ -79.551546101401797, 43.662188394085398 ] } },
{ "type": "Feature", "properties": { "name": "Lambton-Kingsway", "category": "elementary_open", "text": null }, "geometry": { "type": "Point", "coordinates": [ -79.508998659025593, 43.658894228589197 ] } },
{ "type": "Feature", "properties": { "name": "Lanor", "category": "elementary_open", "text": "450 Lanor Avenue. Toronto 14.<br>Opened: 1952-53<br>Closed: --" }, "geometry": { "type": "Point", "coordinates": [ -79.544816006169199, 43.609500528252802 ] } },
{ "type": "Feature", "properties": { "name": "Martin Grove Gardens, cl. 1980-81", "category": "elementary_closed", "text": "50 Celestine Drive, Weston. <br>Opened: 1959-60<br>Closed: 1980-81" }, "geometry": { "type": "Point", "coordinates": [ -79.561449286166905, 43.689782022656303 ] } },
{ "type": "Feature", "properties": { "name": "Melody Village", "category": "elementary_open", "text": "520 Silverstone M9V 3L5<br>Opened: 1971-72<br>Closed: --" }, "geometry": { "type": "Point", "coordinates": [ -79.594860761971404, 43.738071101870403 ] } },
{ "type": "Feature", "properties": { "name": "Mill Valley", "category": "elementary_open", "text": "411 Mill Road<br>Opened: 1969-70<br>Closed: --" }, "geometry": { "type": "Point", "coordinates": [ -79.586997823237198, 43.644186397292103 ] } },
{ "type": "Feature", "properties": { "name": "Millwood", "category": "elementary_open", "text": "222 Mill Road, Etobicoke.<br>Opened: 1962-63<br>Closed: --" }, "geometry": { "type": "Point", "coordinates": [ -79.577247002001997, 43.6334961257676 ] } },
{ "type": "Feature", "properties": { "name": "Norseman", "category": "elementary_open", "text": "105 Norseman St Etobicoke<br>Opened: 1952-53<br>Closed: --" }, "geometry": { "type": "Point", "coordinates": [ -79.516469833637302, 43.634292939964801 ] } },
{ "type": "Feature", "properties": { "name": "Park Lawn", "category": "elementary_open", "text": "71 Ballacaine Dr., Toronto 18<br>Opened: 1951-52<br>Closed: --" }, "geometry": { "type": "Point", "coordinates": [ -79.496581683646198, 43.637690869400899 ] } },
{ "type": "Feature", "properties": { "name": "Parkfield", "category": "elementary_open", "text": "30 Redgrave Drive, Weston<br>Opened: 1965-66<br>Closed: --" }, "geometry": { "type": "Point", "coordinates": [ -79.569759516253995, 43.682287427606902 ] } },
{ "type": "Feature", "properties": { "name": "Parkview, cl. 1981-82", "category": "elementary_closed", "text": "85 Forty-first Street<br>Opened: 1959-60<br>Closed: 1981-82" }, "geometry": { "type": "Point", "coordinates": [ -79.543705281073102, 43.590259169314898 ] } },
{ "type": "Feature", "properties": { "name": "Princess Margaret*, cl. 1983-84", "category": "elementary_closed", "text": "65 Tromley Drive, Islington.<br>Opened: 1959-60<br>Closed: 1983-84" }, "geometry": { "type": "Point", "coordinates": [ -79.559383549340396, 43.671307778214498 ] } },
{ "type": "Feature", "properties": { "name": "Queens Court, cl. 1981-82", "category": "elementary_closed", "text": "35 Ourland. Toronto 14. <br>Opened: 1954-55<br>Closed: 1981-82" }, "geometry": { "type": "Point", "coordinates": [ -79.507703878999195, 43.616221445985801 ] } },
{ "type": "Feature", "properties": { "name": "Queensland, cl. 1973-74", "category": "elementary_closed", "text": "65 Culnan Avenue. Toronto 14. <br>Opened: 1953-54<br>Closed: 1973-74" }, "geometry": { "type": "Point", "coordinates": [ -79.5257158201821, 43.625689362552002 ] } },
{ "type": "Feature", "properties": { "name": "Queensway, cl. 1968-69", "category": "elementary_closed", "text": null }, "geometry": { "type": "Point", "coordinates": [ -79.507529934501903, 43.624955117308801 ] } },
{ "type": "Feature", "properties": { "name": "Rexdale, cl. 1983-84", "category": "elementary_closed", "text": "30 Barrhead Cres. Rexdale P.O.<br>Opened: 1955-56<br>Closed: 1983-84" }, "geometry": { "type": "Point", "coordinates": [ -79.566157817022599, 43.719441897339699 ] } },
{ "type": "Feature", "properties": { "name": "Richview II, cl. 1980-81", "category": "elementary_closed", "text": "59 Clement Road, Weston.<br>Opened: 1963-64<br>Closed: 1980-81" }, "geometry": { "type": "Point", "coordinates": [ -79.559263538652999, 43.679280023430202 ] } },
{ "type": "Feature", "properties": { "name": "Rivercrest", "category": "elementary_open", "text": "30 Harefield Drive, Rexdale P.O.<br>Opened: 1956-57<br>Closed: --" }, "geometry": { "type": "Point", "coordinates": [ -79.569389927679296, 43.729820847308197 ] } },
{ "type": "Feature", "properties": { "name": "Rosethorn, cl. 1983-84", "category": "elementary_closed", "text": "2 Remington Drive. Toronto 18. <br>Opened: 1952-53<br>Closed: 1983-84" }, "geometry": { "type": "Point", "coordinates": [ -79.539669165307799, 43.660077775730798 ] } },
{ "type": "Feature", "properties": { "name": "Second Street", "category": "elementary_open", "text": "71 Second Street<br>Opened: 1949-50<br>Closed: --" }, "geometry": { "type": "Point", "coordinates": [ -79.500030065578699, 43.603939011364503 ] } },
{ "type": "Feature", "properties": { "name": "Seneca", "category": "elementary_open", "text": null }, "geometry": { "type": "Point", "coordinates": [ -79.5824019674249, 43.651024558049897 ] } },
{ "type": "Feature", "properties": { "name": "Seventh Street", "category": "elementary_open", "text": null }, "geometry": { "type": "Point", "coordinates": [ -79.504045779410404, 43.5998135716777 ] } },
{ "type": "Feature", "properties": { "name": "Silver Creek, cl. 1981-82", "category": "elementary_closed", "text": "65 Hartsdale Drive, Weston.<br>Opened: 1962-63<br>Closed: 1981-82" }, "geometry": { "type": "Point", "coordinates": [ -79.545142622264095, 43.683360020112303 ] } },
{ "type": "Feature", "properties": { "name": "Sir Adam Beck", "category": "elementary_open", "text": null }, "geometry": { "type": "Point", "coordinates": [ -79.547629390910501, 43.601559337164502 ] } },
{ "type": "Feature", "properties": { "name": "Smithfield II", "category": "elementary_open", "text": "175 Mount Olive Drive, Rexdale.<br>Opened: 1966-67<br>Closed: --" }, "geometry": { "type": "Point", "coordinates": [ -79.595655614676502, 43.750022601137701 ] } },
{ "type": "Feature", "properties": { "name": "St. George's", "category": "elementary_open", "text": "70 Princess Anne Crescent, Toronto 18.<br>Opened: 1956-57<br>Closed: --" }, "geometry": { "type": "Point", "coordinates": [ -79.541716662830396, 43.672577984655099 ] } },
{ "type": "Feature", "properties": { "name": "Sunnylea, cl. 1984-85", "category": "elementary_closed", "text": null }, "geometry": { "type": "Point", "coordinates": [ -79.507290528148502, 43.642453677157398 ] } },
{ "type": "Feature", "properties": { "name": "The Elms", "category": "elementary_open", "text": "45 Golfdown Drive, Rexdale<br>Opened: 1960-61<br>Closed: --" }, "geometry": { "type": "Point", "coordinates": [ -79.552148587645803, 43.722428055905397 ] } },
{ "type": "Feature", "properties": { "name": "Thistletown, cl. 1984-85", "category": "elementary_closed", "text": null }, "geometry": { "type": "Point", "coordinates": [ -79.5625972557811, 43.735502197926799 ] } },
{ "type": "Feature", "properties": { "name": "Twentieth Street", "category": "elementary_open", "text": null }, "geometry": { "type": "Point", "coordinates": [ -79.519918474282704, 43.598082674681002 ] } },
{ "type": "Feature", "properties": { "name": "Valleyfield", "category": "elementary_open", "text": "35 Saskatoon Dr, Etobicoke, ON M9P 2E8<br>Opened: 1959-60<br>Closed: --" }, "geometry": { "type": "Point", "coordinates": [ -79.538754978176698, 43.694171781733999 ] } },
{ "type": "Feature", "properties": { "name": "Vincent Massey, cl. 1982-83", "category": "elementary_closed", "text": null }, "geometry": { "type": "Point", "coordinates": [ -79.528284549222704, 43.597820818527602 ] } },
{ "type": "Feature", "properties": { "name": "Wedgewood", "category": "elementary_open", "text": "Wedgewood Drive. Toronto 18. <br>Opened: 1952-53<br>Closed: --" }, "geometry": { "type": "Point", "coordinates": [ -79.546278055383695, 43.645351385149297 ] } },
{ "type": "Feature", "properties": { "name": "Wellesworth", "category": "elementary_open", "text": "225 Wellesworth Drive, Etobicoke<br>Opened: 1961-62<br>Closed: --" }, "geometry": { "type": "Point", "coordinates": [ -79.576714804089505, 43.656769009318097 ] } },
{ "type": "Feature", "properties": { "name": "West Deane, cl. 1983-84", "category": "elementary_closed", "text": "35 West Deane Park, Islington.<br>Opened: 1959-60<br>Closed: 1983-84" }, "geometry": { "type": "Point", "coordinates": [ -79.565555265532495, 43.659636219451599 ] } },
{ "type": "Feature", "properties": { "name": "West Glen", "category": "elementary_open", "text": "47 Cowley Ave. Toronto 18. <br>Opened: 1953-54<br>Closed: --" }, "geometry": { "type": "Point", "coordinates": [ -79.560949310920407, 43.650457785612303 ] } },
{ "type": "Feature", "properties": { "name": "West Humber", "category": "elementary_open", "text": "15 Delsing Drive, Rexdale P.O.<br>Opened: 1957-58<br>Closed: --" }, "geometry": { "type": "Point", "coordinates": [ -79.580744775272194, 43.723839441297102 ] } },
{ "type": "Feature", "properties": { "name": "Westmount ", "category": "elementary_open", "text": "95 Chapman Road, Weston.<br>Opened: 1959-60<br>Closed: --" }, "geometry": { "type": "Point", "coordinates": [ -79.519696563923702, 43.689184773140497 ] } },
{ "type": "Feature", "properties": { "name": "Westway", "category": "elementary_open", "text": "25 Poynter Drive, Toronto 15. <br>Opened: 1957-58<br>Closed: --" }, "geometry": { "type": "Point", "coordinates": [ -79.548836220801903, 43.690868887247603 ] } },
{ "type": "Feature", "properties": { "name": "Alderwood Collegiate Institute, cl. 1982-83", "category": "secondary_closed", "text": "300 Valerno Drive, M8W 2L1<br>Opened: 1955-56<br>Closed: 1982-83" }, "geometry": { "type": "Point", "coordinates": [ -79.533883337794194, 43.6092769188148 ] } },
{ "type": "Feature", "properties": { "name": "Burnhamthrope Collegiate Institute ", "category": "secondary_open", "text": "500 The East Mall, M9B 2C4<br>Opened: 1956-57<br>Closed: --" }, "geometry": { "type": "Point", "coordinates": [ -79.5620927315736, 43.648755999908197 ] } },
{ "type": "Feature", "properties": { "name": "Central Etobicoke High School ", "category": "secondary_open", "text": "10 Danfield St., M9B 2C4<br>Opened: 1988-89<br>Closed: --" }, "geometry": { "type": "Point", "coordinates": [ -79.555266606183906, 43.679432502559401 ] } },
{ "type": "Feature", "properties": { "name": "Etobicoke Collegiate Institute", "category": "secondary_open", "text": "86 Montgomery, M9A 3N5<br>Opened: 1928-29<br>Closed: --" }, "geometry": { "type": "Point", "coordinates": [ -79.522306947112696, 43.650052054366299 ] } },
{ "type": "Feature", "properties": { "name": "Etobicoke School of the Arts", "category": "secondary_open", "text": "89 The Queensway, M8Z 1N6<br>Opened: 1981-82<br>Closed: --" }, "geometry": { "type": "Point", "coordinates": [ -79.503958719197399, 43.630954594239299 ] } },
{ "type": "Feature", "properties": { "name": "Humbergrove Secondary School, cl. 1987-88", "category": "secondary_closed", "text": "1760 Martin Grove Road, M9V 3S4<br>Opened: 1965-66<br>Closed: 1987-88" }, "geometry": { "type": "Point", "coordinates": [ -79.592191615456898, 43.735713706537901 ] } },
{ "type": "Feature", "properties": { "name": "Keiller Mackay Collegiate Institute, cl. 1982-83", "category": "secondary_closed", "text": "2 St. Andrews Blvd., M9R 1V8<br>Opened: 1971-72<br>Closed: 1982-83" }, "geometry": { "type": "Point", "coordinates": [ -79.550019000060701, 43.701741577377902 ] } },
{ "type": "Feature", "properties": { "name": "Kingsmill Secondary School, cl. 1987-88", "category": "secondary_closed", "text": "721 Royal York Road, M8Y 2T3<br>Opened: 1963-64<br>Closed: 1987-88" }, "geometry": { "type": "Point", "coordinates": [ -79.504389671105898, 43.634439239290302 ] } },
{ "type": "Feature", "properties": { "name": "Kipling Collegiate Institute", "category": "secondary_open", "text": "380 The Westway, M9R 1H4<br>Opened: 1960-61<br>Closed: --" }, "geometry": { "type": "Point", "coordinates": [ -79.562333145997499, 43.685410209441798 ] } },
{ "type": "Feature", "properties": { "name": "Lakeshore Collegiate Institute", "category": "secondary_open", "text": "350 Kipling Avenue, M8V 3L1<br>Opened: 1983-84<br>Closed: --" }, "geometry": { "type": "Point", "coordinates": [ -79.519261671707696, 43.601717546878902 ] } },
{ "type": "Feature", "properties": { "name": "Martingrove Collegiate Institute", "category": "secondary_open", "text": "50 Winterton Drive, M9B 3G7<br>Opened: 1966-67<br>Closed: --" }, "geometry": { "type": "Point", "coordinates": [ -79.560747673851097, 43.673398613304599 ] } },
{ "type": "Feature", "properties": { "name": "Mimico High School, cl. 1987-88", "category": "secondary_closed", "text": "95 Mimico Avenue, M8V 1R4<br>Opened: 1924-25<br>Closed: 1987-88" }, "geometry": { "type": "Point", "coordinates": [ -79.494598460851606, 43.612074719402997 ] } },
{ "type": "Feature", "properties": { "name": "New Toronto Secondary School, cl. 1982-83", "category": "secondary_closed", "text": "350 Kipling Ave., M8V 3L1<br>Opened: 1951-52<br>Closed: 1982-83" }, "geometry": { "type": "Point", "coordinates": [ -79.519118332400495, 43.601666390904498 ] } },
{ "type": "Feature", "properties": { "name": "North Albion Collegiate Institute", "category": "secondary_open", "text": "2580 Kipling Avenue, M9V 3B2<br>Opened: 1961-62<br>Closed: --" }, "geometry": { "type": "Point", "coordinates": [ -79.585282191294198, 43.7470831611572 ] } },
{ "type": "Feature", "properties": { "name": "Richview Collegiate Institute", "category": "secondary_open", "text": "1738 Islington Avenue, M9B 3N2<br>Opened: 1958-59<br>Closed: --" }, "geometry": { "type": "Point", "coordinates": [ -79.539945920875297, 43.678621081582797 ] } },
{ "type": "Feature", "properties": { "name": "Royal York Collegiate Institute , cl. 1981-82", "category": "secondary_closed", "text": "675 Royal York Road, M8Y 2T1<br>Opened: 1953-54<br>Closed: 1981-82" }, "geometry": { "type": "Point", "coordinates": [ -79.503587037568806, 43.630914209932399 ] } },
{ "type": "Feature", "properties": { "name": "Scarlett Heights Collegiate Institute", "category": "secondary_open", "text": "15 Trehorne Drive, M9P 1N8<br>Opened: 1963-64<br>Closed: --" }, "geometry": { "type": "Point", "coordinates": [ -79.531025039520003, 43.6895497450611 ] } },
{ "type": "Feature", "properties": { "name": "Silverthorn Collegiate Institute", "category": "secondary_open", "text": "291 Mill Road, M9C 1Y5<br>Opened: 1964-65<br>Closed: --" }, "geometry": { "type": "Point", "coordinates": [ -79.580332356059799, 43.637874253690804 ] } },
{ "type": "Feature", "properties": { "name": "Thistletown Collegiate Institute", "category": "secondary_open", "text": "20 Fordwich Crescent, M9W 2T4<br>Opened: 1957-58<br>Closed: --" }, "geometry": { "type": "Point", "coordinates": [ -79.562430932157, 43.727560098990303 ] } },
{ "type": "Feature", "properties": { "name": "Vincent Massey Collegiate Institute, cl. 1984-85", "category": "secondary_closed", "text": "105 Eringate Drive, M9C 3Z7<br>Opened: 1960-61<br>Closed: 1984-85" }, "geometry": { "type": "Point", "coordinates": [ -79.581974116631699, 43.6593915942263 ] } },
{ "type": "Feature", "properties": { "name": "West Humber Collegiate Institute", "category": "secondary_open", "text": "1675 Martin Grove Road, M9V 3S3<br>Opened: 1966-67<br>Closed: --" }, "geometry": { "type": "Point", "coordinates": [ -79.586574090608295, 43.730757216837802 ] } },
{ "type": "Feature", "properties": { "name": "Westway High School, cl. 1987-88", "category": "secondary_closed", "text": "10 Denfield Street, M9R 3H1<br>Opened: 1970-71<br>Closed: 1987-88" }, "geometry": { "type": "Point", "coordinates": [ -79.555609854958902, 43.678468746001997 ] } }
]
}
